[
    {
        "Altitude(m)": 554015.3358158981,
        "Argument of Periapsis(deg)": 0.006622991110713501,
        "Eccentricity": 0.0,
        "Inclination(deg)": 53.0,
        "Latitude(deg)": 22.288034643327336,
        "Longitude(deg)": 27.116310777282944,
        "Mean Anomaly(deg)": 28.273392867577595,
        "RAAN(deg)": 109.99014336852801,
        "Satellite Name": "Starlink Shell 1 485",
        "Satellite Number": 485,
        "Semi-Major Axis(m)": 6931778.249405717,
        "Time(s)": 190
    },
    {
        "Altitude(m)": 554064.9978299184,
        "Argument of Periapsis(deg)": 0.0069715695902247375,
        "Eccentricity": 0.0,
        "Inclination(deg)": 53.0,
        "Latitude(deg)": 22.766508521733087,
        "Longitude(deg)": 27.516190860071273,
        "Mean Anomaly(deg)": 28.900224071134303,
        "RAAN(deg)": 109.98962459845053,
        "Satellite Name": "Starlink Shell 1 485",
        "Satellite Number": 485,
        "Semi-Major Axis(m)": 6931778.249405717,
        "Time(s)": 200
    },
    {
        "Altitude(m)": 554116.4970959135,
        "Argument of Periapsis(deg)": 0.007320148069735974,
        "Eccentricity": 0.0,
        "Inclination(deg)": 53.0,
        "Latitude(deg)": 23.243727800125423,
        "Longitude(deg)": 27.919150898530688,
        "Mean Anomaly(deg)": 29.527055274691,
        "RAAN(deg)": 109.98910582837308,
        "Satellite Name": "Starlink Shell 1 485",
        "Satellite Number": 485,
        "Semi-Major Axis(m)": 6931778.249405717,
        "Time(s)": 210
    },
    {
        "Altitude(m)": 554169.7881049858,
        "Argument of Periapsis(deg)": 0.007668726549247212,
        "Eccentricity": 0.0,
        "Inclination(deg)": 53.0,
        "Latitude(deg)": 23.719654537010726,
        "Longitude(deg)": 28.325276632426775,
        "Mean Anomaly(deg)": 30.153886478247735,
        "RAAN(deg)": 109.98858705829561,
        "Satellite Name": "Starlink Shell 1 485",
        "Satellite Number": 485,
        "Semi-Major Axis(m)": 6931778.249405717,
        "Time(s)": 220
    },
    {
        "Altitude(m)": 554224.8246173178,
        "Argument of Periapsis(deg)": 0.00801730502875845,
        "Eccentricity": 0.0,
        "Inclination(deg)": 53.0,
        "Latitude(deg)": 24.194250035070237,
        "Longitude(deg)": 28.73465500867281,
        "Mean Anomaly(deg)": 30.780717681804443,
        "RAAN(deg)": 109.98806828821813,
        "Satellite Name": "Starlink Shell 1 485",
        "Satellite Number": 485,
        "Semi-Major Axis(m)": 6931778.249405717,
        "Time(s)": 230
    },
    {
        "Altitude(m)": 554281.5596873563,
        "Argument of Periapsis(deg)": 0.008365883508269684,
        "Eccentricity": 0.0,
        "Inclination(deg)": 53.0,
        "Latitude(deg)": 24.667474816197867,
        "Longitude(deg)": 29.147374704589012,
        "Mean Anomaly(deg)": 31.407548885361166,
        "RAAN(deg)": 109.98754951814065,
        "Satellite Name": "Starlink Shell 1 485",
        "Satellite Number": 485,
        "Semi-Major Axis(m)": 6931778.249405717,
        "Time(s)": 240
    },
    {
        "Altitude(m)": 554339.9456893109,
        "Argument of Periapsis(deg)": 0.008714461987780921,
        "Eccentricity": 0.0,
        "Inclination(deg)": 53.0,
        "Latitude(deg)": 25.13928859600622,
        "Longitude(deg)": 29.563525137060456,
        "Mean Anomaly(deg)": 32.03438008891787,
        "RAAN(deg)": 109.98703074806318,
        "Satellite Name": "Starlink Shell 1 485",
        "Satellite Number": 485,
        "Semi-Major Axis(m)": 6931778.249405717,
        "Time(s)": 250
    },
    {
        "Altitude(m)": 554399.9343429331,
        "Argument of Periapsis(deg)": 0.009063040467292158,
        "Eccentricity": 0.0,
        "Inclination(deg)": 53.0,
        "Latitude(deg)": 25.60965025780347,
        "Longitude(deg)": 29.98319698320707,
        "Mean Anomaly(deg)": 32.66121129247458,
        "RAAN(deg)": 109.9865119779857,
        "Satellite Name": "Starlink Shell 1 485",
        "Satellite Number": 485,
        "Semi-Major Axis(m)": 6931778.249405717,
        "Time(s)": 260
    },
    {
        "Altitude(m)": 554461.4767396129,
        "Argument of Periapsis(deg)": 0.009411618946803396,
        "Eccentricity": 0.0,
        "Inclination(deg)": 53.0,
        "Latitude(deg)": 26.078517826038844,
        "Longitude(deg)": 30.406482699548047,
        "Mean Anomaly(deg)": 33.28804249603133,
        "RAAN(deg)": 109.98599320790825,
        "Satellite Name": "Starlink Shell 1 485",
        "Satellite Number": 485,
        "Semi-Major Axis(m)": 6931778.249405717,
        "Time(s)": 270
    },
    {
        "Altitude(m)": 554524.523368737,
        "Argument of Periapsis(deg)": 0.009760197426314633,
        "Eccentricity": 0.0,
        "Inclination(deg)": 53.0,
        "Latitude(deg)": 26.545848439215924,
        "Longitude(deg)": 30.833475526632085,
        "Mean Anomaly(deg)": 33.914873699588036,
        "RAAN(deg)": 109.98547443783077,
        "Satellite Name": "Starlink Shell 1 485",
        "Satellite Number": 485,
        "Semi-Major Axis(m)": 6931778.249405717,
        "Time(s)": 280
    },
    {
        "Altitude(m)": 554589.0241442876,
        "Argument of Periapsis(deg)": 0.01010877590582587,
        "Eccentricity": 0.0,
        "Inclination(deg)": 53.0,
        "Latitude(deg)": 27.01159832228234,
        "Longitude(deg)": 31.264270004714515,
        "Mean Anomaly(deg)": 34.54170490314475,
        "RAAN(deg)": 109.98495566775328,
        "Satellite Name": "Starlink Shell 1 485",
        "Satellite Number": 485,
        "Semi-Major Axis(m)": 6931778.249405717,
        "Time(s)": 290
    },
    {
        "Altitude(m)": 554654.9284317272,
        "Argument of Periapsis(deg)": 0.010457354385337106,
        "Eccentricity": 0.0,
        "Inclination(deg)": 53.0,
        "Latitude(deg)": 27.47572275849908,
        "Longitude(deg)": 31.69896248742855,
        "Mean Anomaly(deg)": 35.16853610670144,
        "RAAN(deg)": 109.98443689767582,
        "Satellite Name": "Starlink Shell 1 485",
        "Satellite Number": 485,
        "Semi-Major Axis(m)": 6931778.249405717,
        "Time(s)": 300
    },
    {
        "Altitude(m)": 554722.1850750708,
        "Argument of Periapsis(deg)": 0.010805932864848343,
        "Eccentricity": 0.0,
        "Inclination(deg)": 53.0,
        "Latitude(deg)": 27.93817606079518,
        "Longitude(deg)": 32.137650140385894,
        "Mean Anomaly(deg)": 35.79536731025817,
        "RAAN(deg)": 109.98391812759834,
        "Satellite Name": "Starlink Shell 1 485",
        "Satellite Number": 485,
        "Semi-Major Axis(m)": 6931778.249405717,
        "Time(s)": 310
    },
    {
        "Altitude(m)": 554790.7424242095,
        "Argument of Periapsis(deg)": 0.01115451134435958,
        "Eccentricity": 0.0,
        "Inclination(deg)": 53.0,
        "Latitude(deg)": 28.398911542623434,
        "Longitude(deg)": 32.58043145024887,
        "Mean Anomaly(deg)": 36.42219851381488,
        "RAAN(deg)": 109.98339935752087,
        "Satellite Name": "Starlink Shell 1 485",
        "Satellite Number": 485,
        "Semi-Major Axis(m)": 6931778.249405717,
        "Time(s)": 320
    },
    {
        "Altitude(m)": 554860.5483624265,
        "Argument of Periapsis(deg)": 0.011503089823870818,
        "Eccentricity": 0.0,
        "Inclination(deg)": 53.0,
        "Latitude(deg)": 28.857881488328818,
        "Longitude(deg)": 33.0274067311811,
        "Mean Anomaly(deg)": 37.0490297173716,
        "RAAN(deg)": 109.98288058744339,
        "Satellite Name": "Starlink Shell 1 485",
        "Satellite Number": 485,
        "Semi-Major Axis(m)": 6931778.249405717,
        "Time(s)": 330
    },
    {
        "Altitude(m)": 554931.550334096,
        "Argument of Periapsis(deg)": 0.011851668303382053,
        "Eccentricity": 0.0,
        "Inclination(deg)": 53.0,
        "Latitude(deg)": 29.315037123042902,
        "Longitude(deg)": 33.4786771155694,
        "Mean Anomaly(deg)": 37.67586092092831,
        "RAAN(deg)": 109.98236181736591,
        "Satellite Name": "Starlink Shell 1 485",
        "Satellite Number": 485,
        "Semi-Major Axis(m)": 6931778.249405717,
        "Time(s)": 340
    },
    {
        "Altitude(m)": 555003.6953725651,
        "Argument of Periapsis(deg)": 0.012200246782893292,
        "Eccentricity": 0.0,
        "Inclination(deg)": 53.0,
        "Latitude(deg)": 29.77032858213065,
        "Longitude(deg)": 33.93434505451457,
        "Mean Anomaly(deg)": 38.30269212448502,
        "RAAN(deg)": 109.98184304728845,
        "Satellite Name": "Starlink Shell 1 485",
        "Satellite Number": 485,
        "Semi-Major Axis(m)": 6931778.249405717,
        "Time(s)": 350
    },
    {
        "Altitude(m)": 555076.9301281831,
        "Argument of Periapsis(deg)": 0.012548825262404526,
        "Eccentricity": 0.0,
        "Inclination(deg)": 53.0,
        "Latitude(deg)": 30.22370488021009,
        "Longitude(deg)": 34.39451481495194,
        "Mean Anomaly(deg)": 38.92952332804174,
        "RAAN(deg)": 109.98132427721099,
        "Satellite Name": "Starlink Shell 1 485",
        "Satellite Number": 485,
        "Semi-Major Axis(m)": 6931778.249405717,
        "Time(s)": 360
    },
    {
        "Altitude(m)": 555151.2008964941,
        "Argument of Periapsis(deg)": 0.012897403741915765,
        "Eccentricity": 0.0,
        "Inclination(deg)": 53.0,
        "Latitude(deg)": 30.67511387977107,
        "Longitude(deg)": 34.859291460244734,
        "Mean Anomaly(deg)": 39.55635453159847,
        "RAAN(deg)": 109.98080550713351,
        "Satellite Name": "Starlink Shell 1 485",
        "Satellite Number": 485,
        "Semi-Major Axis(m)": 6931778.249405717,
        "Time(s)": 370
    }
]